JINJUSAT-1B             
1 63210U 25052A   26068.66363707  .00019955  00000+0  68430-3 0  9998
2 63210  97.4113 325.4613 0005550  82.1930 277.9941 15.30194857 54866
STARLINK-35500          
1 66093U 25236H   26068.48067529  .00031251  00000+0  10640-2 0  9999
2 66093  53.1593 104.7689 0001160  74.6283 285.4846 15.30164158 22910
